{
  "norad_id": 68330,
  "name": "STARLINK-37001",
  "history": [
    {
      "epoch": "2026-03-31T16:00:01.999584Z",
      "apogee_km": 329.0355852247885,
      "perigee_km": 327.0344634927196,
      "latitude_deg": -47.67966904075546,
      "longitude_deg": 58.52358140520034,
      "height_km": 345.215825655731,
      "semi_major_axis_km": 6706.172024358753,
      "eccentricity": 0.0001492,
      "inclination_deg": 53.1594,
      "raan_deg": 252.6727,
      "arg_perigee_deg": 95.5554,
      "mean_anomaly_deg": 151.5333,
      "mean_motion_rev_day": 15.80850233
    }
  ]
}